NORAD_CAT_ID,OBJECT_NAME,OBJECT_TYPE,EPOCH,MEAN_MOTION,ECCENTRICITY,INCLINATION,RA_OF_ASC_NODE,ARG_OF_PERICENTER,MEAN_ANOMALY,BSTAR,MEAN_MOTION_DOT,MEAN_MOTION_DDOT,TLE_LINE0,TLE_LINE1,TLE_LINE2,SEMIMAJOR_AXIS,PERIOD,APOGEE,PERIGEE,DECAYED
49747.0,STARLINK-3247,PAYLOAD,2022-03-10 22:00:01,15.08835619,0.0001802,53.2097,222.3375,47.1951,31.8572,0.00091695,0.00014334,0.0,0 STARLINK-3247,1 49747U 21115Z   22069.91668981  .00014334  00000-0  91695-3 0  9996,2 49747  53.2097 222.3375 0001802  47.1951  31.8572 15.08835619  3602,6917.894,95.438,541.005,538.512,0.0
49747.0,STARLINK-3247,PAYLOAD,2022-03-11 06:00:00,15.08869797,0.0001524,53.2128,220.8187,49.4392,41.159,-0.011398,-0.00177399,0.0,0 STARLINK-3247,1 49747U 21115Z   22070.25001157 -.00177399  00000-0 -11398-1 0  9994,2 49747  53.2128 220.8187 0001524  49.4392  41.1590 15.08869797 16316,6917.7890000000025,95.436,540.7090000000002,538.6,0.0
49747.0,STARLINK-3247,PAYLOAD,2022-03-11 12:00:00,15.08664203,0.0001558,53.215,219.6841,54.3588,314.9537,0.011981,0.00194772,0.0,0 STARLINK-3247,1 49747U 21115Z   22070.50001157  .00194772  00000-0  11981-1 0  9992,2 49747  53.2150 219.6841 0001558  54.3588 314.9537 15.08664203 16354,6918.418000000002,95.449,541.361,539.205,0.0
49747.0,STARLINK-3247,PAYLOAD,2022-03-11 14:00:01,15.08647933,0.0001551999999999,53.2156,219.3066,49.4485,52.7359,0.017284,0.00284595,0.0,0 STARLINK-3247,1 49747U 21115Z   22070.58334491  .00284595  00000-0  17284-1 0  9995,2 49747  53.2156 219.3066 0001552  49.4485  52.7359 15.08647933  3571,6918.468000000003,95.45,541.406,539.259,0.0
49747.0,STARLINK-3247,PAYLOAD,2022-03-11 22:00:00,15.08824517,0.0001706999999999,53.2096,217.8478,42.8373,70.9141,0.0019958,0.00031605,0.0,0 STARLINK-3247,1 49747U 21115Z   22070.91667824  .00031605  00000-0  19958-2 0  9994,2 49747  53.2096 217.8478 0001707  42.8373  70.9141 15.08824517 16412,6917.928000000001,95.439,540.974,538.612,0.0
49747.0,STARLINK-3247,PAYLOAD,2022-03-12 14:00:01,15.08853233,0.0001556,53.2098,214.8542,46.3912,90.4843,-0.0014151,-0.00022747,0.0,0 STARLINK-3247,1 49747U 21115Z   22071.58334491 -.00022747  00000-0 -14151-2 0  9998,2 49747  53.2098 214.8542 0001556  46.3912  90.4843 15.08853233 16517,6917.84,95.437,540.781,538.629,0.0
49747.0,STARLINK-3247,PAYLOAD,2022-03-12 22:00:00,15.08848933,0.000166,53.2093,213.3581,41.1716,107.3184,0.0016296,0.00025749,0.0,0 STARLINK-3247,1 49747U 21115Z   22071.91667824  .00025749  00000-0  16296-2 0  9999,2 49747  53.2093 213.3581 0001660  41.1716 107.3184 15.08848933 16562,6917.853,95.437,540.866,538.57,0.0
49747.0,STARLINK-3247,PAYLOAD,2022-03-13 14:00:01,15.08835985,0.0001729,53.2175,210.3187,41.0773,130.5589,6.4028e-05,7.31e-06,0.0,0 STARLINK-3247,1 49747U 21115Z   22072.58334491  .00000731  00000-0  64028-4 0  9996,2 49747  53.2175 210.3187 0001729  41.0773 130.5589 15.08835985 16661,6917.893,95.438,540.9540000000002,538.562,0.0
49747.0,STARLINK-3247,PAYLOAD,2022-03-13 22:00:01,15.08842675,0.0001758,53.209,208.8683,45.8379,137.4962,0.00078358,0.00012206,0.0,0 STARLINK-3247,1 49747U 21115Z   22072.91668981  .00012206  00000-0  78358-3 0  9997,2 49747  53.2090 208.8683 0001758  45.8379 137.4962 15.08842675 16717,6917.871999999999,95.437,540.953,538.521,0.0
49747.0,STARLINK-3247,PAYLOAD,2022-03-14 14:00:01,15.08886881,0.0001686,53.2092,205.8748,46.6075,159.9896,-0.0025619,-0.00040882,0.0,0 STARLINK-3247,1 49747U 21115Z   22073.58335648 -.00040882  00000-0 -25619-2 0  9996,2 49747  53.2092 205.8748 0001686  46.6075 159.9896 15.08886881 16813,6917.736999999999,95.435,540.768,538.436,0.0
49747.0,STARLINK-3247,PAYLOAD,2022-03-14 20:00:01,15.08851938,0.0001746,53.209,204.753,42.4357,82.8226,0.00067806,0.00010523,0.0,0 STARLINK-3247,1 49747U 21115Z   22073.83334491  .00010523  00000-0  67806-3 0  9991,2 49747  53.2090 204.7530 0001746  42.4357  82.8226 15.08851938  3566,6917.844,95.437,540.9169999999998,538.501,0.0
49747.0,STARLINK-3247,PAYLOAD,2022-03-15 02:00:01,15.0886822,0.000165,53.2091,203.629,46.7924,357.1791,-0.0046209,-0.00073141,0.0,0 STARLINK-3247,1 49747U 21115Z   22074.08334491 -.00073141  00000-0 -46209-2 0  9999,2 49747  53.2091 203.6290 0001650  46.7924 357.1791 15.08868220  3588,6917.794,95.436,540.8009999999998,538.518,0.0
49747.0,STARLINK-3247,PAYLOAD,2022-03-15 22:00:00,15.08789907,0.0001854,53.2092,199.8886,45.6959,207.1638,-0.00037942,-6.313e-05,0.0,0 STARLINK-3247,1 49747U 21115Z   22074.91667824 -.00006313  00000-0 -37942-3 0  9992,2 49747  53.2092 199.8886 0001854  45.6959 207.1638 15.08789907 17020,6918.034000000002,95.441,541.181,538.616,0.0
49747.0,STARLINK-3247,PAYLOAD,2022-03-16 14:00:01,15.08826217,0.0002003,53.2098,196.8956,50.3615,225.5726,-0.00010216,-1.913e-05,0.0,0 STARLINK-3247,1 49747U 21115Z   22075.58334491 -.00001913  00000-0 -10216-3 0  9993,2 49747  53.2098 196.8956 0002003  50.3615 225.5726 15.08826217 17129,6917.9230000000025,95.438,541.173,538.4019999999998,0.0
49747.0,STARLINK-3247,PAYLOAD,2022-03-16 20:00:01,15.0882013,0.0002049,53.2099,195.7736,47.1303,147.4904,0.0022881,0.00036296,0.0,0 STARLINK-3247,1 49747U 21115Z   22075.83334491  .00036296  00000-0  22881-2 0  9991,2 49747  53.2099 195.7736 0002049  47.1303 147.4904 15.08820130  3585,6917.941,95.439,541.224,538.389,0.0
49747.0,STARLINK-3247,PAYLOAD,2022-03-17 06:00:00,15.08824228,0.0001912,53.2103,193.9008,53.51,245.6034,0.0030778,0.00049015,0.0,0 STARLINK-3247,1 49747U 21115Z   22076.25001157  .00049015  00000-0  30778-2 0  9995,2 49747  53.2103 193.9008 0001912  53.5100 245.6034 15.08824228 17220,6917.929,95.439,541.116,538.471,0.0
49747.0,STARLINK-3247,PAYLOAD,2022-03-17 14:00:01,15.08859226,0.0002059,53.2106,192.406,49.2659,261.4452,-0.0011385,-0.00018372,0.0,0 STARLINK-3247,1 49747U 21115Z   22076.58334491 -.00018372  00000-0 -11385-2 0  9998,2 49747  53.2106 192.4060 0002059  49.2659 261.4452 15.08859226  3590,6917.821999999999,95.436,541.111,538.262,0.0
49747.0,STARLINK-3247,PAYLOAD,2022-03-17 22:00:00,15.08864844,0.0002004,53.2107,190.9092,45.9679,276.3517,-0.0032138,-0.00051109,0.0,0 STARLINK-3247,1 49747U 21115Z   22076.91667824 -.00051109  00000-0 -32138-2 0  9998,2 49747  53.2107 190.9092 0002004  45.9679 276.3517 15.08864844  3593,6917.804,95.436,541.056,538.283,0.0
49747.0,STARLINK-3247,PAYLOAD,2022-03-18 08:00:01,15.08843143,0.0001865,53.2112,189.0374,51.7122,15.1125,0.00098076,0.00015357,0.0,0 STARLINK-3247,1 49747U 21115Z   22077.33334491  .00015357  00000-0  98076-3 0  9993,2 49747  53.2112 189.0374 0001865  51.7122  15.1125 15.08843143 17388,6917.871,95.437,541.026,538.446,0.0
49747.0,STARLINK-3247,PAYLOAD,2022-03-18 14:00:01,15.0885904,0.0001998,53.2111,187.9164,46.4886,299.0389,-0.0020816,-0.00033282,0.0,0 STARLINK-3247,1 49747U 21115Z   22077.58334491 -.00033282  00000-0 -20816-2 0  9995,2 49747  53.2111 187.9164 0001998  46.4886 299.0389 15.08859040  3615,6917.821999999999,95.436,541.069,538.305,0.0
49747.0,STARLINK-3247,PAYLOAD,2022-03-18 22:00:00,15.08848132,0.0001923,53.2113,186.4193,43.9667,313.165,-0.0022214,-0.00035477,0.0,0 STARLINK-3247,1 49747U 21115Z   22077.91667824 -.00035477  00000-0 -22214-2 0  9993,2 49747  53.2113 186.4193 0001923  43.9667 313.1650 15.08848132 17478,6917.856,95.437,541.0509999999998,538.39,0.0
49747.0,STARLINK-3247,PAYLOAD,2022-03-19 14:00:01,15.08848645,0.0001928,53.2112,183.427,44.4909,335.8293,-0.0012292,-0.00019803,0.0,0 STARLINK-3247,1 49747U 21115Z   22078.58334491 -.00019803  00000-0 -12292-2 0  9998,2 49747  53.2112 183.4270 0001928  44.4909 335.8293 15.08848645 17574,6917.854,95.437,541.053,538.385,0.0
49747.0,STARLINK-3247,PAYLOAD,2022-03-19 22:00:01,15.08853265,0.0001832,53.2108,181.9298,42.3029,349.6784,-0.0033637,-0.00053445,0.0,0 STARLINK-3247,1 49747U 21115Z   22078.91668981 -.00053445  00000-0 -33637-2 0  9995,2 49747  53.2108 181.9298 0001832  42.3029 349.6784 15.08853265  3618,6917.84,95.437,540.972,538.437,0.0
49747.0,STARLINK-3247,PAYLOAD,2022-03-20 14:00:01,15.08834028,0.0001854,53.2107,178.9376,43.0082,12.0849,-0.00013702,-2.468e-05,0.0,0 STARLINK-3247,1 49747U 21115Z   22079.58334491 -.00002468  00000-0 -13702-3 0  9996,2 49747  53.2107 178.9376 0001854  43.0082  12.0849 15.08834028 17727,6917.899,95.438,541.0459999999998,538.481,0.0
49747.0,STARLINK-3247,PAYLOAD,2022-03-20 22:00:01,15.08859781,0.0001792,53.2102,177.4402,42.5987,24.1479,-0.0015491,-0.00024871,0.0,0 STARLINK-3247,1 49747U 21115Z   22079.91668981 -.00024871  00000-0 -15491-2 0  9995,2 49747  53.2102 177.4402 0001792  42.5987  24.1479 15.08859781  3603,6917.82,95.436,540.925,538.445,0.0
49747.0,STARLINK-3247,PAYLOAD,2022-03-21 06:00:00,15.08843796,0.0001668,53.2102,175.9428,48.3555,29.9339,0.0018964,0.00030026,0.0,0 STARLINK-3247,1 49747U 21115Z   22080.25001157  .00030026  00000-0  18964-2 0  9995,2 49747  53.2102 175.9428 0001668  48.3555  29.9339 15.08843796 17827,6917.869000000002,95.437,540.888,538.58,0.0
49747.0,STARLINK-3247,PAYLOAD,2022-03-21 14:00:01,15.08864845,0.0001837,53.2099,174.4481,42.3995,47.4999,-0.0033949,-0.00053951,0.0,0 STARLINK-3247,1 49747U 21115Z   22080.58334491 -.00053951  00000-0 -33949-2 0  9995,2 49747  53.2099 174.4481 0001837  42.3995  47.4999 15.08864845  3599,6917.804,95.436,540.94,538.399,0.0
49747.0,STARLINK-3247,PAYLOAD,2022-03-21 22:00:00,15.08840653,0.0001764,53.2094,172.9505,42.5471,58.9559,-0.0034406,-0.00054632,0.0,0 STARLINK-3247,1 49747U 21115Z   22080.91667824 -.00054632  00000-0 -34406-2 0  9997,2 49747  53.2094 172.9505 0001764  42.5471  58.9559 15.08840653 17926,6917.878000000002,95.438,540.964,538.523,0.0
49747.0,STARLINK-3247,PAYLOAD,2022-03-22 14:00:01,15.08809313,0.0001897,53.2093,169.9585,43.4884,81.1514,0.00073955,0.00011492,0.0,0 STARLINK-3247,1 49747U 21115Z   22081.58334491  .00011492  00000-0  73955-3 0  9990,2 49747  53.2093 169.9585 0001897  43.4884  81.1514 15.08809313 18023,6917.974,95.439,541.1519999999998,538.5269999999998,0.0
